start=new Date('2023-03-29T00:00:00.000Z').valueOf();
sats=[{"REF_FRAME":"TEME","CENTER_NAME":"EARTH","GP_ID":"229066862","APOAPSIS":"540.737","RCS_SIZE":"LARGE","LAUNCH_DATE":"2022-03-19","MEAN_ELEMENT_THEORY":"SGP4","DECAY_DATE":null,"MEAN_MOTION_DDOT":"0.0000000000000","NORAD_CAT_ID":"52105","INCLINATION":"53.2171","EPHEMERIS_TYPE":"0","EPOCH":"2023-03-28T18:23:15.993312","ELEMENT_SET_NO":"999","SITE":"AFETR","CLASSIFICATION_TYPE":"U","BSTAR":"0.00039961000000","ARG_OF_PERICENTER":"97.6019","RA_OF_ASC_NODE":"233.6213","PERIOD":"95.437","FILE":"3873921","OBJECT_ID":"2022-029T","PERIAPSIS":"538.699","MEAN_MOTION":"15.08848875","REV_AT_EPOCH":"5820","TLE_LINE2":"2 52105  53.2171 233.6213 0001473  97.6019 262.5140 15.08848875 58200","MEAN_ANOMALY":"262.5140","OBJECT_NAME":"STARLINK-3706","ECCENTRICITY":"0.00014730","TLE_LINE1":"1 52105U 22029T   23087.76615733  .00006079  00000-0  39961-3 0  9999","SEMIMAJOR_AXIS":"6917.853","OBJECT_TYPE":"PAYLOAD","COUNTRY_CODE":"US","MEAN_MOTION_DOT":"0.00006079","TIME_SYSTEM":"UTC"},{"RA_OF_ASC_NODE":"243.8249","FILE":"3873921","PERIOD":"95.437","CLASSIFICATION_TYPE":"U","BSTAR":"0.00052216000000","ARG_OF_PERICENTER":"82.4024","EPOCH":"2023-03-28T17:16:58.520064","SITE":"AFETR","ELEMENT_SET_NO":"999","NORAD_CAT_ID":"52106","INCLINATION":"53.2144","EPHEMERIS_TYPE":"0","DECAY_DATE":null,"MEAN_ELEMENT_THEORY":"SGP4","MEAN_MOTION_DDOT":"0.0000000000000","RCS_SIZE":"LARGE","GP_ID":"229068113","APOAPSIS":"540.462","LAUNCH_DATE":"2022-03-19","REF_FRAME":"TEME","CENTER_NAME":"EARTH","SEMIMAJOR_AXIS":"6917.842","TIME_SYSTEM":"UTC","OBJECT_TYPE":"PAYLOAD","COUNTRY_CODE":"US","MEAN_MOTION_DOT":"0.00008035","TLE_LINE1":"1 52106U 22029U   23087.72012176  .00008035  00000-0  52216-3 0  9990","ECCENTRICITY":"0.00010910","MEAN_ANOMALY":"277.7093","OBJECT_NAME":"STARLINK-3670","TLE_LINE2":"2 52106  53.2144 243.8249 0001091  82.4024 277.7093 15.08852460 58061","PERIAPSIS":"538.953","REV_AT_EPOCH":"5806","MEAN_MOTION":"15.08852460","OBJECT_ID":"2022-029U"},{"TLE_LINE2":"2 52107  53.2156 234.2345 0001218  80.7240 279.3890 15.08850581 58186","OBJECT_ID":"2022-029V","MEAN_MOTION":"15.08850581","REV_AT_EPOCH":"5818","PERIAPSIS":"538.870","TLE_LINE1":"1 52107U 22029V   23087.62904274  .00018744  00000-0  11923-2 0  9996","TIME_SYSTEM":"UTC","COUNTRY_CODE":"US","MEAN_MOTION_DOT":"0.00018744","OBJECT_TYPE":"PAYLOAD","SEMIMAJOR_AXIS":"6917.848","OBJECT_NAME":"STARLINK-3658","MEAN_ANOMALY":"279.3890","ECCENTRICITY":"0.00012180","LAUNCH_DATE":"2022-03-19","RCS_SIZE":"LARGE","GP_ID":"229067841","APOAPSIS":"540.556","MEAN_MOTION_DDOT":"0.0000000000000","DECAY_DATE":null,"MEAN_ELEMENT_THEORY":"SGP4","REF_FRAME":"TEME","CENTER_NAME":"EARTH","ARG_OF_PERICENTER":"80.7240","CLASSIFICATION_TYPE":"U","BSTAR":"0.00119230000000","FILE":"3873921","PERIOD":"95.437","RA_OF_ASC_NODE":"234.2345","EPHEMERIS_TYPE":"0","NORAD_CAT_ID":"52107","INCLINATION":"53.2156","SITE":"AFETR","ELEMENT_SET_NO":"999","EPOCH":"2023-03-28T15:05:49.292736"},{"APOAPSIS":"540.696","GP_ID":"229066612","RCS_SIZE":"LARGE","LAUNCH_DATE":"2022-03-19","MEAN_ELEMENT_THEORY":"SGP4","DECAY_DATE":null,"MEAN_MOTION_DDOT":"0.0000000000000","CENTER_NAME":"EARTH","REF_FRAME":"TEME","CLASSIFICATION_TYPE":"U","BSTAR":"0.00022572000000","ARG_OF_PERICENTER":"86.7709","RA_OF_ASC_NODE":"233.6065","PERIOD":"95.436","FILE":"3873921","NORAD_CAT_ID":"52108","INCLINATION":"53.2155","EPHEMERIS_TYPE":"0","EPOCH":"2023-03-28T18:27:11.024640","SITE":"AFETR","ELEMENT_SET_NO":"999","TLE_LINE2":"2 52108  53.2155 233.6065 0001483  86.7709 273.3452 15.08864485 58207","OBJECT_ID":"2022-029W","PERIAPSIS":"538.645","REV_AT_EPOCH":"5820","MEAN_MOTION":"15.08864485","TLE_LINE1":"1 52108U 22029W   23087.76887760  .00003309  00000-0  22572-3 0  9996","SEMIMAJOR_AXIS":"6917.806","OBJECT_TYPE":"PAYLOAD","COUNTRY_CODE":"US","MEAN_MOTION_DOT":"0.00003309","TIME_SYSTEM":"UTC","MEAN_ANOMALY":"273.3452","OBJECT_NAME":"STARLINK-3698","ECCENTRICITY":"0.00014830"},{"EPHEMERIS_TYPE":"0","INCLINATION":"53.2166","NORAD_CAT_ID":"52110","SITE":"AFETR","ELEMENT_SET_NO":"999","EPOCH":"2023-03-28T16:46:30.078336","ARG_OF_PERICENTER":"111.3827","CLASSIFICATION_TYPE":"U","BSTAR":"0.00170590000000","PERIOD":"95.437","FILE":"3873921","RA_OF_ASC_NODE":"233.9180","REF_FRAME":"TEME","CENTER_NAME":"EARTH","LAUNCH_DATE":"2022-03-19","APOAPSIS":"540.422","GP_ID":"229067362","RCS_SIZE":"LARGE","MEAN_MOTION_DDOT":"0.0000000000000","MEAN_ELEMENT_THEORY":"SGP4","DECAY_DATE":null,"OBJECT_NAME":"STARLINK-3687","MEAN_ANOMALY":"248.7275","ECCENTRICITY":"0.00010270","TLE_LINE1":"1 52110U 22029Y   23087.69895924  .00026974  00000-0  17059-2 0  9998","OBJECT_TYPE":"PAYLOAD","COUNTRY_CODE":"US","MEAN_MOTION_DOT":"0.00026974","TIME_SYSTEM":"UTC","SEMIMAJOR_AXIS":"6917.846","OBJECT_ID":"2022-029Y","MEAN_MOTION":"15.08851097","REV_AT_EPOCH":"5819","PERIAPSIS":"539.001","TLE_LINE2":"2 52110  53.2166 233.9180 0001027 111.3827 248.7275 15.08851097 58195"},{"OBJECT_NAME":"STARLINK-3708","MEAN_ANOMALY":"285.1828","ECCENTRICITY":"0.00009720","TLE_LINE1":"1 52111U 22029Z   23087.81671752  .00001145  00000-0  89997-4 0  9999","TIME_SYSTEM":"UTC","COUNTRY_CODE":"US","OBJECT_TYPE":"PAYLOAD","MEAN_MOTION_DOT":"0.00001145","SEMIMAJOR_AXIS":"6917.832","OBJECT_ID":"2022-029Z","MEAN_MOTION":"15.08855912","REV_AT_EPOCH":"5821","PERIAPSIS":"539.024","TLE_LINE2":"2 52111  53.2133 233.3931 0000972  74.9272 285.1828 15.08855912 58216","EPHEMERIS_TYPE":"0","NORAD_CAT_ID":"52111","INCLINATION":"53.2133","ELEMENT_SET_NO":"999","SITE":"AFETR","EPOCH":"2023-03-28T19:36:04.393728","ARG_OF_PERICENTER":"74.9272","CLASSIFICATION_TYPE":"U","BSTAR":"0.00008999700000","FILE":"3873921","PERIOD":"95.437","RA_OF_ASC_NODE":"233.3931","REF_FRAME":"TEME","CENTER_NAME":"EARTH","LAUNCH_DATE":"2022-03-19","RCS_SIZE":"LARGE","GP_ID":"229067613","APOAPSIS":"540.369","MEAN_MOTION_DDOT":"0.0000000000000","DECAY_DATE":null,"MEAN_ELEMENT_THEORY":"SGP4"},{"REF_FRAME":"TEME","CENTER_NAME":"EARTH","MEAN_ELEMENT_THEORY":"SGP4","DECAY_DATE":null,"MEAN_MOTION_DDOT":"0.0000000000000","GP_ID":"229068342","APOAPSIS":"540.430","RCS_SIZE":"LARGE","LAUNCH_DATE":"2022-03-19","EPOCH":"2023-03-28T16:35:54.322080","SITE":"AFETR","ELEMENT_SET_NO":"999","INCLINATION":"53.2155","NORAD_CAT_ID":"52112","EPHEMERIS_TYPE":"0","RA_OF_ASC_NODE":"233.9523","PERIOD":"95.437","FILE":"3873921","CLASSIFICATION_TYPE":"U","BSTAR":"0.00093883000000","ARG_OF_PERICENTER":"83.1623","PERIAPSIS":"538.963","REV_AT_EPOCH":"5819","MEAN_MOTION":"15.08855949","OBJECT_ID":"2022-029AA","TLE_LINE2":"2 52112  53.2155 233.9523 0001060  83.1623 276.9489 15.08855949 58193","ECCENTRICITY":"0.00010600","MEAN_ANOMALY":"276.9489","OBJECT_NAME":"STARLINK-3734","SEMIMAJOR_AXIS":"6917.832","COUNTRY_CODE":"US","OBJECT_TYPE":"PAYLOAD","MEAN_MOTION_DOT":"0.00014692","TIME_SYSTEM":"UTC","TLE_LINE1":"1 52112U 22029AA  23087.69160095  .00014692  00000-0  93883-3 0  9998"},{"PERIAPSIS":"538.711","REV_AT_EPOCH":"5819","MEAN_MOTION":"15.08853632","OBJECT_ID":"2022-029AB","TLE_LINE2":"2 52113  53.2146 234.0204 0001435  59.6105 300.5029 15.08853632 58192","ECCENTRICITY":"0.00014350","MEAN_ANOMALY":"300.5029","OBJECT_NAME":"STARLINK-3736","SEMIMAJOR_AXIS":"6917.839","COUNTRY_CODE":"US","MEAN_MOTION_DOT":"0.00002110","OBJECT_TYPE":"PAYLOAD","TIME_SYSTEM":"UTC","TLE_LINE1":"1 52113U 22029AB  23087.67688254  .00002110  00000-0  15058-3 0  9999","REF_FRAME":"TEME","CENTER_NAME":"EARTH","MEAN_ELEMENT_THEORY":"SGP4","DECAY_DATE":null,"MEAN_MOTION_DDOT":"0.0000000000000","APOAPSIS":"540.696","GP_ID":"229067113","RCS_SIZE":"LARGE","LAUNCH_DATE":"2022-03-19","EPOCH":"2023-03-28T16:14:42.651456","SITE":"AFETR","ELEMENT_SET_NO":"999","NORAD_CAT_ID":"52113","INCLINATION":"53.2146","EPHEMERIS_TYPE":"0","RA_OF_ASC_NODE":"234.0204","PERIOD":"95.437","FILE":"3873921","CLASSIFICATION_TYPE":"U","BSTAR":"0.00015058000000","ARG_OF_PERICENTER":"59.6105"},{"REF_FRAME":"TEME","CENTER_NAME":"EARTH","MEAN_MOTION_DDOT":"0.0000000000000","MEAN_ELEMENT_THEORY":"SGP4","DECAY_DATE":null,"LAUNCH_DATE":"2022-03-19","APOAPSIS":"540.415","GP_ID":"229066863","RCS_SIZE":"LARGE","SITE":"AFETR","ELEMENT_SET_NO":"999","EPOCH":"2023-03-28T16:30:36.398592","EPHEMERIS_TYPE":"0","INCLINATION":"53.2140","NORAD_CAT_ID":"52114","PERIOD":"95.437","FILE":"3873921","RA_OF_ASC_NODE":"233.9699","ARG_OF_PERICENTER":"61.4374","CLASSIFICATION_TYPE":"U","BSTAR":"0.00162290000000","MEAN_MOTION":"15.08851260","REV_AT_EPOCH":"5819","PERIAPSIS":"539.007","OBJECT_ID":"2022-029AC","TLE_LINE2":"2 52114  53.2140 233.9699 0001018  61.4374 298.6720 15.08851260 58199","ECCENTRICITY":"0.00010180","OBJECT_NAME":"STARLINK-3737","MEAN_ANOMALY":"298.6720","COUNTRY_CODE":"US","OBJECT_TYPE":"PAYLOAD","MEAN_MOTION_DOT":"0.00025643","TIME_SYSTEM":"UTC","SEMIMAJOR_AXIS":"6917.846","TLE_LINE1":"1 52114U 22029AC  23087.68792128  .00025643  00000-0  16229-2 0  9993"},{"OBJECT_NAME":"STARLINK-3685","MEAN_ANOMALY":"292.6008","ECCENTRICITY":"0.00012590","TLE_LINE1":"1 52115U 22029AD  23087.80200258  .00039542  00000-0  24871-2 0  9991","COUNTRY_CODE":"US","OBJECT_TYPE":"PAYLOAD","MEAN_MOTION_DOT":"0.00039542","TIME_SYSTEM":"UTC","SEMIMAJOR_AXIS":"6917.808","OBJECT_ID":"2022-029AD","MEAN_MOTION":"15.08863701","REV_AT_EPOCH":"5821","PERIAPSIS":"538.802","TLE_LINE2":"2 52115  53.2124 233.4581 0001259  67.5117 292.6008 15.08863701 58215","EPHEMERIS_TYPE":"0","NORAD_CAT_ID":"52115","INCLINATION":"53.2124","SITE":"AFETR","ELEMENT_SET_NO":"999","EPOCH":"2023-03-28T19:14:53.022912","ARG_OF_PERICENTER":"67.5117","CLASSIFICATION_TYPE":"U","BSTAR":"0.00248710000000","PERIOD":"95.436","FILE":"3873921","RA_OF_ASC_NODE":"233.4581","REF_FRAME":"TEME","CENTER_NAME":"EARTH","LAUNCH_DATE":"2022-03-19","GP_ID":"229068114","APOAPSIS":"540.544","RCS_SIZE":"LARGE","MEAN_MOTION_DDOT":"0.0000000000000","MEAN_ELEMENT_THEORY":"SGP4","DECAY_DATE":null}];
